[{"OBJECT_NAME":"STARLINK-5527","OBJECT_ID":"2023-064BB","EPOCH":"2026-03-09T11:25:41.329920","MEAN_MOTION":14.98325687,"ECCENTRICITY":0.00031283,"INCLINATION":69.9995,"RA_OF_ASC_NODE":104.8725,"ARG_OF_PERICENTER":269.9984,"MEAN_ANOMALY":90.0817,"EPHEMERIS_TYPE":0,"CLASSIFICATION_TYPE":"U","NORAD_CAT_ID":56497,"ELEMENT_SET_NO":999,"REV_AT_EPOCH":15620,"BSTAR":9.8055974e-5,"MEAN_MOTION_DOT":1.077e-5,"MEAN_MOTION_DDOT":0},{"OBJECT_NAME":"HAWK-10C","OBJECT_ID":"2024-149DM","EPOCH":"2026-03-09T19:12:00.010368","MEAN_MOTION":14.96177491,"ECCENTRICITY":0.0003886,"INCLINATION":97.6791,"RA_OF_ASC_NODE":145.3128,"ARG_OF_PERICENTER":47.6078,"MEAN_ANOMALY":312.5472,"EPHEMERIS_TYPE":0,"CLASSIFICATION_TYPE":"U","NORAD_CAT_ID":60575,"ELEMENT_SET_NO":999,"REV_AT_EPOCH":8512,"BSTAR":0.00025720063,"MEAN_MOTION_DOT":2.841e-5,"MEAN_MOTION_DDOT":0}]
